NORAD_CAT_ID,OBJECT_NAME,OBJECT_TYPE,EPOCH,MEAN_MOTION,ECCENTRICITY,INCLINATION,RA_OF_ASC_NODE,ARG_OF_PERICENTER,MEAN_ANOMALY,BSTAR,MEAN_MOTION_DOT,MEAN_MOTION_DDOT,TLE_LINE0,TLE_LINE1,TLE_LINE2,SEMIMAJOR_AXIS,PERIOD,APOGEE,PERIGEE,DECAYED
52278.0,STARLINK-3780,PAYLOAD,2022-06-07 14:00:01,15.40504409,0.0001445,53.2173,146.4589,43.9585,317.4685,-0.018943,-0.00720997,0.0,0 STARLINK-3780,1 52278U 22041T   22158.58334491 -.00720997  00000-0 -18943-1 0  9990,2 52278  53.2173 146.4589 0001445  43.9585 317.4685 15.40504409  1302,6822.757,93.476,445.607,443.636,0.0
52278.0,STARLINK-3780,PAYLOAD,2022-06-07 22:00:00,15.39992275,0.0001606,53.2174,144.8887,37.9576,12.8,-0.019162,-0.00717341,0.0,0 STARLINK-3780,1 52278U 22041T   22158.91667824 -.00717341  00000-0 -19162-1 0  9999,2 52278  53.2174 144.8887 0001606  37.9576  12.8000 15.39992275  1305,6824.269,93.507,447.23,445.038,0.0
52278.0,STARLINK-3780,PAYLOAD,2022-06-08 06:00:02,15.39484598,0.0002076,53.2173,143.3233,28.5454,70.9904,-0.019599,-0.00721228,0.0,0 STARLINK-3780,1 52278U 22041T   22159.25002315 -.00721228  00000-0 -19599-1 0  9998,2 52278  53.2173 143.3233 0002076  28.5454  70.9904 15.39484598  8664,6825.769,93.538,449.051,446.217,0.0
52278.0,STARLINK-3780,PAYLOAD,2022-06-08 14:00:01,15.38973328,0.0001605,53.2173,141.7564,45.0558,102.5201,-0.019859,-0.00718691,0.0,0 STARLINK-3780,1 52278U 22041T   22159.58334491 -.00718691  00000-0 -19859-1 0  9996,2 52278  53.2173 141.7564 0001605  45.0558 102.5201 15.38973328  1308,6827.281,93.569,450.242,448.05,0.0
52278.0,STARLINK-3780,PAYLOAD,2022-06-08 22:00:01,15.38463849,0.0001919,53.2174,140.19,36.8421,158.2887,-0.020204,-0.00719045,0.0,0 STARLINK-3780,1 52278U 22041T   22159.91668981 -.00719045  00000-0 -20204-1 0  9997,2 52278  53.2174 140.1900 0001919  36.8421 158.2887 15.38463849  1301,6828.788000000001,93.6,451.964,449.343,0.0
52278.0,STARLINK-3780,PAYLOAD,2022-06-09 14:00:01,15.37445028,0.0001692,53.2174,137.0647,39.6702,248.5386,-0.020973,-0.0072168,0.0,0 STARLINK-3780,1 52278U 22041T   22160.58334491 -.00721680  00000-0 -20973-1 0  9999,2 52278  53.2174 137.0647 0001692  39.6702 248.5386 15.37445028  1300,6831.805,93.662,454.826,452.514,0.0
52278.0,STARLINK-3780,PAYLOAD,2022-06-09 22:00:00,15.36931972,0.0001614,53.2176,135.5024,40.1548,293.7075,-0.021129,-0.00715486,0.0,0 STARLINK-3780,1 52278U 22041T   22160.91667824 -.00715486  00000-0 -21129-1 0  9996,2 52278  53.2176 135.5024 0001614  40.1548 293.7075 15.36931972  8922,6833.325,93.693,456.293,454.087,0.0
52278.0,STARLINK-3780,PAYLOAD,2022-06-10 14:00:01,15.35913923,0.0001689,53.2174,132.3839,35.6675,27.66,-0.021961,-0.00719235,0.0,0 STARLINK-3780,1 52278U 22041T   22161.58334491 -.00719235  00000-0 -21961-1 0  9991,2 52278  53.2174 132.3839 0001689  35.6675  27.6600 15.35913923  1309,6836.344,93.755,459.364,457.055,0.0
52278.0,STARLINK-3780,PAYLOAD,2022-06-10 22:00:00,15.35402609,0.0001859,53.2177,130.8252,35.1467,71.9953,-0.022231,-0.00716426,0.0,0 STARLINK-3780,1 52278U 22041T   22161.91667824 -.00716426  00000-0 -22231-1 0  9997,2 52278  53.2177 130.8252 0001859  35.1467  71.9953 15.35402609  9087,6837.861999999999,93.786,460.99800000000016,458.456,0.0
52278.0,STARLINK-3780,PAYLOAD,2022-06-11 22:00:00,15.33873335,0.0001766,53.2176,126.1592,43.5132,191.3931,-0.023361,-0.00716806,0.0,0 STARLINK-3780,1 52278U 22041T   22162.91667824 -.00716806  00000-0 -23361-1 0  9995,2 52278  53.2176 126.1592 0001766  43.5132 191.3931 15.33873335  9236,6842.406,93.88,465.479,463.06300000000016,0.0
52278.0,STARLINK-3780,PAYLOAD,2022-06-12 14:00:01,15.32855383,0.0001544,53.2174,123.0551,44.6136,272.4049,-0.024298,-0.00721418,0.0,0 STARLINK-3780,1 52278U 22041T   22163.58334491 -.00721418  00000-0 -24298-1 0  9995,2 52278  53.2174 123.0551 0001544  44.6136 272.4049 15.32855383  1308,6845.435,93.942,468.357,466.24300000000005,0.0
52278.0,STARLINK-3780,PAYLOAD,2022-06-12 22:00:00,15.32342978,0.000159,53.2177,121.5042,41.9924,315.1639,-0.024505,-0.00716296,0.0,0 STARLINK-3780,1 52278U 22041T   22163.91667824 -.00716296  00000-0 -24505-1 0  9990,2 52278  53.2177 121.5042 0001590  41.9924 315.1639 15.32342978  9382,6846.9609999999975,93.974,469.915,467.737,0.0
52278.0,STARLINK-3780,PAYLOAD,2022-06-13 14:00:01,15.31323799,0.0001483,53.2174,118.4072,46.3589,29.233,-0.025382,-0.00718334,0.0,0 STARLINK-3780,1 52278U 22041T   22164.58334491 -.00718334  00000-0 -25382-1 0  9994,2 52278  53.2174 118.4072 0001483  46.3589  29.2330 15.31323799  1308,6849.999,94.036,472.88,470.848,0.0
52278.0,STARLINK-3780,PAYLOAD,2022-06-13 22:00:00,15.30812455,0.0001565999999999,53.2176,116.8598,47.6261,66.265,-0.025688,-0.00715676,0.0,0 STARLINK-3780,1 52278U 22041T   22164.91667824 -.00715676  00000-0 -25688-1 0  9995,2 52278  53.2176 116.8598 0001566  47.6261  66.2650 15.30812455  9549,6851.524,94.068,474.462,472.316,0.0
52278.0,STARLINK-3780,PAYLOAD,2022-06-14 14:00:01,15.29794193,0.0001713,53.2174,113.7699,45.0757,143.5738,-0.026619,-0.00718258,0.0,0 STARLINK-3780,1 52278U 22041T   22165.58334491 -.00718258  00000-0 -26619-1 0  9994,2 52278  53.2174 113.7699 0001713  45.0757 143.5738 15.29794193  1309,6854.564,94.13,477.603,475.255,0.0
52278.0,STARLINK-3780,PAYLOAD,2022-06-14 22:00:00,15.29282687,0.0001585,53.2175,112.2265,54.764,170.3463,-0.026929,-0.00715402,0.0,0 STARLINK-3780,1 52278U 22041T   22165.91667824 -.00715402  00000-0 -26929-1 0  9992,2 52278  53.2175 112.2265 0001585  54.7640 170.3463 15.29282687  9691,6856.092,94.162,479.044,476.871,0.0
52278.0,STARLINK-3780,PAYLOAD,2022-06-15 14:00:01,15.28264883,0.0001426999999999,53.2175,109.1436,54.9833,241.2089,-0.02796,-0.00727833,0.0,0 STARLINK-3780,1 52278U 22041T   22166.58334491 -.00727833  00000-0 -27960-1 0  9994,2 52278  53.2175 109.1436 0001427  54.9833 241.2089 15.28264883  1306,6859.136,94.225,481.98,480.022,0.0
52278.0,STARLINK-3780,PAYLOAD,2022-06-15 22:00:00,15.27753739,0.0001496999999999,53.2177,107.6038,49.242,281.5723,-0.028291,-0.00725179,0.0,0 STARLINK-3780,1 52278U 22041T   22166.91667824 -.00725179  00000-0 -28291-1 0  9999,2 52278  53.2177 107.6038 0001497  49.2420 281.5723 15.27753739  9846,6860.666,94.256,483.5580000000001,481.504,0.0
52278.0,STARLINK-3780,PAYLOAD,2022-06-16 02:00:01,15.27498143,0.0001682,53.2173,106.8353,49.4644,118.4309,-0.028488,-0.00724599,0.0,0 STARLINK-3780,1 52278U 22041T   22167.08334491 -.00724599  00000-0 -28488-1 0  9992,2 52278  53.2173 106.8353 0001682  49.4644 118.4309 15.27498143  1305,6861.431,94.272,484.45,482.142,0.0
52278.0,STARLINK-3780,PAYLOAD,2022-06-19 14:00:01,15.22141664,0.0001483,53.2175,90.7461,51.3848,259.8287,-0.033317,-0.00721381,0.0,0 STARLINK-3780,1 52278U 22041T   22170.58334491 -.00721381  00000-0 -33317-1 0  9994,2 52278  53.2175  90.7461 0001483  51.3848 259.8287 15.22141664  1308,6877.519,94.604,500.404,498.364,0.0
52278.0,STARLINK-3780,PAYLOAD,2022-06-19 22:00:00,15.21633337,0.0001496,53.2176,89.2214,50.6364,287.8444,-0.033948,-0.0072388999999999,0.0,0 STARLINK-3780,1 52278U 22041T   22170.91667824 -.00723890  00000-0 -33948-1 0  9997,2 52278  53.2176  89.2214 0001496  50.6364 287.8444 15.21633337  1305,6879.051,94.635,501.945,499.886,0.0
52278.0,STARLINK-3780,PAYLOAD,2022-06-20 14:00:01,15.20611328,0.0001440999999999,53.2174,86.1736,47.2067,343.9743,-0.034834,-0.00720951,0.0,0 STARLINK-3780,1 52278U 22041T   22171.58334491 -.00720951  00000-0 -34834-1 0  9992,2 52278  53.2174  86.1736 0001441  47.2067 343.9743 15.20611328  1301,6882.132,94.699,504.989,503.006,0.0
52278.0,STARLINK-3780,PAYLOAD,2022-06-20 22:00:00,15.20103736,0.0001693,53.2176,84.6528,40.2944,16.3151,-0.035551,-0.00724678,0.0,0 STARLINK-3780,1 52278U 22041T   22171.91667824 -.00724678  00000-0 -35551-1 0  9995,2 52278  53.2176  84.6528 0001693  40.2944  16.3151 15.20103736 10618,6883.6640000000025,94.73,506.695,504.364,0.0
52278.0,STARLINK-3780,PAYLOAD,2022-06-21 14:00:01,15.19081815,0.0001578,53.2174,81.6119,46.96100000000001,58.6719,-0.036462,-0.00721599,0.0,0 STARLINK-3780,1 52278U 22041T   22172.58334491 -.00721599  00000-0 -36462-1 0  9991,2 52278  53.2174  81.6119 0001578  46.9610  58.6719 15.19081815  1300,6886.751,94.794,509.703,507.53,0.0
52278.0,STARLINK-3780,PAYLOAD,2022-06-21 22:00:00,15.18572599,0.0001806,53.2174,80.0947,41.459,87.7647,-0.037071,-0.00722808,0.0,0 STARLINK-3780,1 52278U 22041T   22172.91667824 -.00722808  00000-0 -37071-1 0  9998,2 52278  53.2174  80.0947 0001806  41.4590  87.7647 15.18572599  1309,6888.291,94.826,511.4,508.912,0.0
52278.0,STARLINK-3780,PAYLOAD,2022-06-22 06:00:00,15.18062241,0.0001599,53.2171,78.5784,51.9323,100.27,-0.037532,-0.00721142,0.0,0 STARLINK-3780,1 52278U 22041T   22173.25001157 -.00721142  00000-0 -37532-1 0  9999,2 52278  53.2171  78.5784 0001599  51.9323 100.2700 15.18062241 10811,6889.834,94.858,512.8009999999998,510.598,0.0
52278.0,STARLINK-3780,PAYLOAD,2022-06-22 14:00:01,15.1755236,0.0001638,53.2172,77.0609,50.261,124.3088,-0.038151,-0.00722235,0.0,0 STARLINK-3780,1 52278U 22041T   22173.58334491 -.00722235  00000-0 -38151-1 0  9997,2 52278  53.2172  77.0609 0001638  50.2610 124.3088 15.17552360  1302,6891.378000000002,94.89,514.371,512.114,0.0
52278.0,STARLINK-3780,PAYLOAD,2022-06-22 22:00:00,15.17041383,0.0001712,53.2175,75.5474,51.1887,145.1341,-0.038612,-0.00720413,0.0,0 STARLINK-3780,1 52278U 22041T   22173.91667824 -.00720413  00000-0 -38612-1 0  9991,2 52278  53.2175  75.5474 0001712  51.1887 145.1341 15.17041383  1308,6892.925,94.922,515.97,513.61,0.0
52278.0,STARLINK-3780,PAYLOAD,2022-06-23 06:00:00,15.16533522,0.0001551999999999,53.2171,74.0344,59.044,158.4182,-0.03935,-0.00723314,0.0,0 STARLINK-3780,1 52278U 22041T   22174.25001157 -.00723314  00000-0 -39350-1 0  9993,2 52278  53.2171  74.0344 0001552  59.0440 158.4182 15.16533522 10960,6894.464,94.953,517.399,515.259,0.0
